STARLINK-36189          
1 67010U 25293H   26002.25003472 -.00124016  00000+0 -20404-2 0  9995
2 67010  69.9996 265.2981 0003159 269.4417  63.3997 15.52577439  3455
STARLINK-36167          
1 67011U 25293J   26002.25003472 -.00075035  00000+0 -12271-2 0  9995
2 67011  69.9996 265.3006 0003060 271.5475  59.3767 15.52550454  3395
STARLINK-36175          
1 67012U 25293K   26002.25003472 -.00104112  00000+0 -17088-2 0  9996
2 67012  69.9996 265.2965 0003330 274.0403  60.7139 15.52566570  3393
STARLINK-35856          
1 67013U 25293L   26002.25003472 -.00148506  00000+0 -24500-2 0  9999
2 67013  69.9998 265.2932 0003584 269.9502  66.7235 15.52590042  3398
STARLINK-36207          
1 67014U 25293M   26002.25003472 -.00122049  00000+0 -20074-2 0  9996
2 67014  69.9997 265.2913 0003529 271.1552  67.4323 15.52576258  3452
STARLINK-36093          
1 67015U 25293N   26002.25003472 -.00082952  00000+0 -13579-2 0  9997
2 67015  69.9997 265.2868 0003417 273.1802  69.2419 15.52554975  3399
STARLINK-36120          
1 67016U 25293P   26002.25003472 -.00106329  00000+0 -17455-2 0  9990
2 67016  69.9997 265.2890 0003505 273.2251  67.2756 15.52569799  3394
STARLINK-35498          
1 67017U 25293Q   26002.25003472 -.00117787  00000+0 -19366-2 0  9994
2 67017  69.9997 265.2845 0003494 274.7232  69.6189 15.52571004  3597
STARLINK-36106          
1 67018U 25293R   26002.25003472 -.00090179  00000+0 -14776-2 0  9990
2 67018  69.9998 265.2819 0003497 271.8265  74.4300 15.52558559  3507
STARLINK-35688          
1 67019U 25293S   26002.25003472 -.00143188  00000+0 -23610-2 0  9997
2 67019  69.9997 265.2795 0003419 270.9233  77.2505 15.52587152  3597
STARLINK-36172          
1 67020U 25293T   26002.25003472 -.00093027  00000+0 -15249-2 0  9994
2 67020  69.9997 265.2773 0003378 270.8611  79.2301 15.52559828  3504
STARLINK-36184          
1 67021U 25293U   26002.25003472 -.00123334  00000+0 -20291-2 0  9993
2 67021  69.9998 265.2749 0003312 270.6222  81.3883 15.52575219  3504
