CCSDS_OMM_VERS = 2.0
CREATION_DATE  = 
ORIGINATOR     = 

OBJECT_NAME    = STARLINK-36189
OBJECT_ID      = 2025-293H
CENTER_NAME    = EARTH
REF_FRAME      = TEME
TIME_SYSTEM    = UTC
MEAN_ELEMENT_THEORY = SGP/SGP4

EPOCH          = 2026-01-02T06:00:02.999808
MEAN_MOTION    = 15.52577439
ECCENTRICITY   = .00031592
INCLINATION    = 69.9996
RA_OF_ASC_NODE = 265.2981
ARG_OF_PERICENTER = 269.4417
MEAN_ANOMALY   = 63.3997

EPHEMERIS_TYPE = 0
CLASSIFICATION_TYPE = U
NORAD_CAT_ID   = 67010
ELEMENT_SET_NO = 999
REV_AT_EPOCH   = 345
BSTAR          = -.20403955E-2
MEAN_MOTION_DOT = -.124016E-2
MEAN_MOTION_DDOT = 0

CCSDS_OMM_VERS = 2.0
CREATION_DATE  = 
ORIGINATOR     = 

OBJECT_NAME    = STARLINK-36167
OBJECT_ID      = 2025-293J
CENTER_NAME    = EARTH
REF_FRAME      = TEME
TIME_SYSTEM    = UTC
MEAN_ELEMENT_THEORY = SGP/SGP4

EPOCH          = 2026-01-02T06:00:02.999808
MEAN_MOTION    = 15.52550454
ECCENTRICITY   = .00030604
INCLINATION    = 69.9996
RA_OF_ASC_NODE = 265.3006
ARG_OF_PERICENTER = 271.5475
MEAN_ANOMALY   = 59.3767

EPHEMERIS_TYPE = 0
CLASSIFICATION_TYPE = U
NORAD_CAT_ID   = 67011
ELEMENT_SET_NO = 999
REV_AT_EPOCH   = 339
BSTAR          = -.12271086E-2
MEAN_MOTION_DOT = -.75035E-3
MEAN_MOTION_DDOT = 0

CCSDS_OMM_VERS = 2.0
CREATION_DATE  = 
ORIGINATOR     = 

OBJECT_NAME    = STARLINK-36175
OBJECT_ID      = 2025-293K
CENTER_NAME    = EARTH
REF_FRAME      = TEME
TIME_SYSTEM    = UTC
MEAN_ELEMENT_THEORY = SGP/SGP4

EPOCH          = 2026-01-02T06:00:02.999808
MEAN_MOTION    = 15.52566570
ECCENTRICITY   = .00033303
INCLINATION    = 69.9996
RA_OF_ASC_NODE = 265.2965
ARG_OF_PERICENTER = 274.0403
MEAN_ANOMALY   = 60.7139

EPHEMERIS_TYPE = 0
CLASSIFICATION_TYPE = U
NORAD_CAT_ID   = 67012
ELEMENT_SET_NO = 999
REV_AT_EPOCH   = 339
BSTAR          = -.17088408E-2
MEAN_MOTION_DOT = -.104112E-2
MEAN_MOTION_DDOT = 0

CCSDS_OMM_VERS = 2.0
CREATION_DATE  = 
ORIGINATOR     = 

OBJECT_NAME    = STARLINK-35856
OBJECT_ID      = 2025-293L
CENTER_NAME    = EARTH
REF_FRAME      = TEME
TIME_SYSTEM    = UTC
MEAN_ELEMENT_THEORY = SGP/SGP4

EPOCH          = 2026-01-02T06:00:02.999808
MEAN_MOTION    = 15.52590042
ECCENTRICITY   = .00035846
INCLINATION    = 69.9998
RA_OF_ASC_NODE = 265.2932
ARG_OF_PERICENTER = 269.9502
MEAN_ANOMALY   = 66.7235

EPHEMERIS_TYPE = 0
CLASSIFICATION_TYPE = U
NORAD_CAT_ID   = 67013
ELEMENT_SET_NO = 999
REV_AT_EPOCH   = 339
BSTAR          = -.24500403E-2
MEAN_MOTION_DOT = -.148506E-2
MEAN_MOTION_DDOT = 0

CCSDS_OMM_VERS = 2.0
CREATION_DATE  = 
ORIGINATOR     = 

OBJECT_NAME    = STARLINK-36207
OBJECT_ID      = 2025-293M
CENTER_NAME    = EARTH
REF_FRAME      = TEME
TIME_SYSTEM    = UTC
MEAN_ELEMENT_THEORY = SGP/SGP4

EPOCH          = 2026-01-02T06:00:02.999808
MEAN_MOTION    = 15.52576258
ECCENTRICITY   = .00035298
INCLINATION    = 69.9997
RA_OF_ASC_NODE = 265.2913
ARG_OF_PERICENTER = 271.1552
MEAN_ANOMALY   = 67.4323

EPHEMERIS_TYPE = 0
CLASSIFICATION_TYPE = U
NORAD_CAT_ID   = 67014
ELEMENT_SET_NO = 999
REV_AT_EPOCH   = 345
BSTAR          = -.20074497E-2
MEAN_MOTION_DOT = -.122049E-2
MEAN_MOTION_DDOT = 0

CCSDS_OMM_VERS = 2.0
CREATION_DATE  = 
ORIGINATOR     = 

OBJECT_NAME    = STARLINK-36093
OBJECT_ID      = 2025-293N
CENTER_NAME    = EARTH
REF_FRAME      = TEME
TIME_SYSTEM    = UTC
MEAN_ELEMENT_THEORY = SGP/SGP4

EPOCH          = 2026-01-02T06:00:02.999808
MEAN_MOTION    = 15.52554975
ECCENTRICITY   = .00034176
INCLINATION    = 69.9997
RA_OF_ASC_NODE = 265.2868
ARG_OF_PERICENTER = 273.1802
MEAN_ANOMALY   = 69.2419

EPHEMERIS_TYPE = 0
CLASSIFICATION_TYPE = U
NORAD_CAT_ID   = 67015
ELEMENT_SET_NO = 999
REV_AT_EPOCH   = 339
BSTAR          = -.13579163E-2
MEAN_MOTION_DOT = -.82952E-3
MEAN_MOTION_DDOT = 0

CCSDS_OMM_VERS = 2.0
CREATION_DATE  = 
ORIGINATOR     = 

OBJECT_NAME    = STARLINK-36120
OBJECT_ID      = 2025-293P
CENTER_NAME    = EARTH
REF_FRAME      = TEME
TIME_SYSTEM    = UTC
MEAN_ELEMENT_THEORY = SGP/SGP4

EPOCH          = 2026-01-02T06:00:02.999808
MEAN_MOTION    = 15.52569799
ECCENTRICITY   = .00035059
INCLINATION    = 69.9997
RA_OF_ASC_NODE = 265.2890
ARG_OF_PERICENTER = 273.2251
MEAN_ANOMALY   = 67.2756

EPHEMERIS_TYPE = 0
CLASSIFICATION_TYPE = U
NORAD_CAT_ID   = 67016
ELEMENT_SET_NO = 999
REV_AT_EPOCH   = 339
BSTAR          = -.17455179E-2
MEAN_MOTION_DOT = -.106329E-2
MEAN_MOTION_DDOT = 0

CCSDS_OMM_VERS = 2.0
CREATION_DATE  = 
ORIGINATOR     = 

OBJECT_NAME    = STARLINK-35498
OBJECT_ID      = 2025-293Q
CENTER_NAME    = EARTH
REF_FRAME      = TEME
TIME_SYSTEM    = UTC
MEAN_ELEMENT_THEORY = SGP/SGP4

EPOCH          = 2026-01-02T06:00:02.999808
MEAN_MOTION    = 15.52571004
ECCENTRICITY   = .00034948
INCLINATION    = 69.9997
RA_OF_ASC_NODE = 265.2845
ARG_OF_PERICENTER = 274.7232
MEAN_ANOMALY   = 69.6189

EPHEMERIS_TYPE = 0
CLASSIFICATION_TYPE = U
NORAD_CAT_ID   = 67017
ELEMENT_SET_NO = 999
REV_AT_EPOCH   = 359
BSTAR          = -.19365972E-2
MEAN_MOTION_DOT = -.117787E-2
MEAN_MOTION_DDOT = 0

CCSDS_OMM_VERS = 2.0
CREATION_DATE  = 
ORIGINATOR     = 

OBJECT_NAME    = STARLINK-36106
OBJECT_ID      = 2025-293R
CENTER_NAME    = EARTH
REF_FRAME      = TEME
TIME_SYSTEM    = UTC
MEAN_ELEMENT_THEORY = SGP/SGP4

EPOCH          = 2026-01-02T06:00:02.999808
MEAN_MOTION    = 15.52558559
ECCENTRICITY   = .0003497
INCLINATION    = 69.9998
RA_OF_ASC_NODE = 265.2819
ARG_OF_PERICENTER = 271.8265
MEAN_ANOMALY   = 74.4300

EPHEMERIS_TYPE = 0
CLASSIFICATION_TYPE = U
NORAD_CAT_ID   = 67018
ELEMENT_SET_NO = 999
REV_AT_EPOCH   = 350
BSTAR          = -.14775913E-2
MEAN_MOTION_DOT = -.90179E-3
MEAN_MOTION_DDOT = 0

CCSDS_OMM_VERS = 2.0
CREATION_DATE  = 
ORIGINATOR     = 

OBJECT_NAME    = STARLINK-35688
OBJECT_ID      = 2025-293S
CENTER_NAME    = EARTH
REF_FRAME      = TEME
TIME_SYSTEM    = UTC
MEAN_ELEMENT_THEORY = SGP/SGP4

EPOCH          = 2026-01-02T06:00:02.999808
MEAN_MOTION    = 15.52587152
ECCENTRICITY   = .00034199
INCLINATION    = 69.9997
RA_OF_ASC_NODE = 265.2795
ARG_OF_PERICENTER = 270.9233
MEAN_ANOMALY   = 77.2505

EPHEMERIS_TYPE = 0
CLASSIFICATION_TYPE = U
NORAD_CAT_ID   = 67019
ELEMENT_SET_NO = 999
REV_AT_EPOCH   = 359
BSTAR          = -.23609671E-2
MEAN_MOTION_DOT = -.143188E-2
MEAN_MOTION_DDOT = 0

CCSDS_OMM_VERS = 2.0
CREATION_DATE  = 
ORIGINATOR     = 

OBJECT_NAME    = STARLINK-36172
OBJECT_ID      = 2025-293T
CENTER_NAME    = EARTH
REF_FRAME      = TEME
TIME_SYSTEM    = UTC
MEAN_ELEMENT_THEORY = SGP/SGP4

EPOCH          = 2026-01-02T06:00:02.999808
MEAN_MOTION    = 15.52559828
ECCENTRICITY   = .0003378
INCLINATION    = 69.9997
RA_OF_ASC_NODE = 265.2773
ARG_OF_PERICENTER = 270.8611
MEAN_ANOMALY   = 79.2301

EPHEMERIS_TYPE = 0
CLASSIFICATION_TYPE = U
NORAD_CAT_ID   = 67020
ELEMENT_SET_NO = 999
REV_AT_EPOCH   = 350
BSTAR          = -.15248546E-2
MEAN_MOTION_DOT = -.93027E-3
MEAN_MOTION_DDOT = 0

CCSDS_OMM_VERS = 2.0
CREATION_DATE  = 
ORIGINATOR     = 

OBJECT_NAME    = STARLINK-36184
OBJECT_ID      = 2025-293U
CENTER_NAME    = EARTH
REF_FRAME      = TEME
TIME_SYSTEM    = UTC
MEAN_ELEMENT_THEORY = SGP/SGP4

EPOCH          = 2026-01-02T06:00:02.999808
MEAN_MOTION    = 15.52575219
ECCENTRICITY   = .00033128
INCLINATION    = 69.9998
RA_OF_ASC_NODE = 265.2749
ARG_OF_PERICENTER = 270.6222
MEAN_ANOMALY   = 81.3883

EPHEMERIS_TYPE = 0
CLASSIFICATION_TYPE = U
NORAD_CAT_ID   = 67021
ELEMENT_SET_NO = 999
REV_AT_EPOCH   = 350
BSTAR          = -.20290867E-2
MEAN_MOTION_DOT = -.123334E-2
MEAN_MOTION_DDOT = 0

